COMMENT,ORIGINATOR,NORAD_CAT_ID,OBJECT_NAME,OBJECT_TYPE,CLASSIFICATION_TYPE,INTLDES,EPOCH,EPOCH_MICROSECONDS,MEAN_MOTION,ECCENTRICITY,INCLINATION,RA_OF_ASC_NODE,ARG_OF_PERICENTER,MEAN_ANOMALY,EPHEMERIS_TYPE,ELEMENT_SET_NO,REV_AT_EPOCH,BSTAR,MEAN_MOTION_DOT,MEAN_MOTION_DDOT,FILE,TLE_LINE0,TLE_LINE1,TLE_LINE2,OBJECT_ID,OBJECT_NUMBER,SEMIMAJOR_AXIS,PERIOD,APOGEE,PERIGEE,DECAYED
"GENERATED VIA SPACETRACK.ORG API","18 SPCS","55096","SPACEBEE-161","PAYLOAD","U","23001CR","2024-01-11 02:49:54","432768","15.30676209","0.001196","97.4482","75.4563","356.9405","3.1761","0","999","5678","0.0012828","0.00038189","0","4159265","0 SPACEBEE-161","1 55096U 23001CR  24011.11799112  .00038189  00000-0  12828-2 0  9992","2 55096  97.4482  75.4563 0011960 356.9405   3.1761 15.30676209 56783","2023-001CR","55096","6851.931","94.076","481.990","465.601","0"
"GENERATED VIA SPACETRACK.ORG API","18 SPCS","55096","SPACEBEE-161","PAYLOAD","U","23001CR","2024-01-11 20:05:23","301600","15.30735833","0.0011925","97.4481","76.1775","354.5992","5.5118","0","999","5689","0.0013429","0.00040065","0","4159463","0 SPACEBEE-161","1 55096U 23001CR  24011.83707525  .00040065  00000-0  13429-2 0  9992","2 55096  97.4481  76.1775 0011925 354.5992   5.5118 15.30735833 56894","2023-001CR","55096","6851.753","94.072","481.788","465.447","0"
"GENERATED VIA SPACETRACK.ORG API","18 SPCS","55096","SPACEBEE-161","PAYLOAD","U","23001CR","2024-01-11 20:05:23","301600","15.30735833","0.0011925","97.4481","76.1775","354.5992","5.5118","0","999","5689","0.0013429","0.00040065","0","4159545","0 SPACEBEE-161","1 55096U 23001CR  24011.83707525  .00040065  00000-0  13429-2 0  9992","2 55096  97.4481  76.1775 0011925 354.5992   5.5118 15.30735833 56894","2023-001CR","55096","6851.753","94.072","481.788","465.447","0"
"GENERATED VIA SPACETRACK.ORG API","18 SPCS","55096","SPACEBEE-161","PAYLOAD","U","23001CR","2024-01-12 03:56:02","954976","15.30760574","0.0011913","97.4479","76.5054","353.4509","6.6574","0","999","5694","0.0012723","0.00037973","0","4160109","0 SPACEBEE-161","1 55096U 23001CR  24012.16392309  .00037973  00000-0  12723-2 0  9999","2 55096  97.4479  76.5054 0011913 353.4509   6.6574 15.30760574 56948","2023-001CR","55096","6851.679","94.071","481.706","465.381","0"
"GENERATED VIA SPACETRACK.ORG API","18 SPCS","55096","SPACEBEE-161","PAYLOAD","U","23001CR","2024-01-12 16:29:05","372736","15.30801258","0.0011847","97.4476","77.0301","351.5985","8.5056","0","999","5702","0.0012126","0.00036224","0","4160399","0 SPACEBEE-161","1 55096U 23001CR  24012.68686774  .00036224  00000-0  12126-2 0  9993","2 55096  97.4476  77.0301 0011847 351.5985   8.5056 15.30801258 57020","2023-001CR","55096","6851.557","94.068","481.539","465.305","0"
"GENERATED VIA SPACETRACK.ORG API","18 SPCS","55096","SPACEBEE-161","PAYLOAD","U","23001CR","2024-01-13 03:27:59","52672","15.30836898","0.0011848","97.4473","77.4891","349.822","10.2779","0","999","5709","0.0012885","0.00038551","0","4160557","0 SPACEBEE-161","1 55096U 23001CR  24013.14443348  .00038551  00000-0  12885-2 0  9990","2 55096  97.4473  77.4891 0011848 349.8220  10.2779 15.30836898 57095","2023-001CR","55096","6851.451","94.066","481.434","465.198","0"
"GENERATED VIA SPACETRACK.ORG API","18 SPCS","55096","SPACEBEE-161","PAYLOAD","U","23001CR","2024-01-13 03:27:59","52672","15.30836898","0.0011848","97.4473","77.4891","349.822","10.2779","0","999","5709","0.0012885","0.00038551","0","4160970","0 SPACEBEE-161","1 55096U 23001CR  24013.14443348  .00038551  00000-0  12885-2 0  9990","2 55096  97.4473  77.4891 0011848 349.8220  10.2779 15.30836898 57095","2023-001CR","55096","6851.451","94.066","481.434","465.198","0"
"GENERATED VIA SPACETRACK.ORG API","18 SPCS","55096","SPACEBEE-161","PAYLOAD","U","23001CR","2024-01-14 02:59:50","996256","15.30913704","0.0011762","97.4469","78.4729","346.3485","13.7436","0","999","5724","0.0013313","0.00039935","0","4161833","0 SPACEBEE-161","1 55096U 23001CR  24014.12489579  .00039935  00000-0  13313-2 0  9999","2 55096  97.4469  78.4729 0011762 346.3485  13.7436 15.30913704 57248","2023-001CR","55096","6851.222","94.061","481.145","465.028","0"
"GENERATED VIA SPACETRACK.ORG API","18 SPCS","55096","SPACEBEE-161","PAYLOAD","U","23001CR","2024-01-14 17:06:56","42496","15.30964794","0.0011735","97.447","79.0635","344.3728","15.7149","0","999","5733","0.0014367","0.00043189","0","4162045","0 SPACEBEE-161","1 55096U 23001CR  24014.71314864  .00043189  00000-0  14367-2 0  9994","2 55096  97.4470  79.0635 0011735 344.3728  15.7149 15.30964794 57339","2023-001CR","55096","6851.069","94.058","480.974","464.895","0"
"GENERATED VIA SPACETRACK.ORG API","18 SPCS","55096","SPACEBEE-161","PAYLOAD","U","23001CR","2024-01-14 17:06:56","42496","15.30964794","0.0011735","97.447","79.0635","344.3728","15.7149","0","999","5733","0.0014367","0.00043189","0","4162100","0 SPACEBEE-161","1 55096U 23001CR  24014.71314864  .00043189  00000-0  14367-2 0  9994","2 55096  97.4470  79.0635 0011735 344.3728  15.7149 15.30964794 57339","2023-001CR","55096","6851.069","94.058","480.974","464.895","0"
"GENERATED VIA SPACETRACK.ORG API","18 SPCS","55096","SPACEBEE-161","PAYLOAD","U","23001CR","2024-01-15 04:05:45","344544","15.31009751","0.0011648","97.4467","79.5226","342.7286","17.3557","0","999","5740","0.0015512","0.00046722","0","4162722","0 SPACEBEE-161","1 55096U 23001CR  24015.17066371  .00046722  00000-0  15512-2 0  9991","2 55096  97.4467  79.5226 0011648 342.7286  17.3557 15.31009751 57403","2023-001CR","55096","6850.935","94.056","480.780","464.820","0"
"GENERATED VIA SPACETRACK.ORG API","18 SPCS","55096","SPACEBEE-161","PAYLOAD","U","23001CR","2024-01-15 16:38:40","358688","15.31055507","0.0011594","97.4467","80.0474","340.959","19.1216","0","999","5748","0.0013877","0.00041821","0","4162957","0 SPACEBEE-161","1 55096U 23001CR  24015.69352267  .00041821  00000-0  13877-2 0  9997","2 55096  97.4467  80.0474 0011594 340.9590  19.1216 15.31055507 57483","2023-001CR","55096","6850.799","94.053","480.607","464.721","0"
"GENERATED VIA SPACETRACK.ORG API","18 SPCS","55096","SPACEBEE-161","PAYLOAD","U","23001CR","2024-01-16 03:37:27","433344","15.31094387","0.0011596","97.4465","80.5067","339.2711","20.8058","0","999","5755","0.0013958","0.00042118","0","4163140","0 SPACEBEE-161","1 55096U 23001CR  24016.15101196  .00042118  00000-0  13958-2 0  9992","2 55096  97.4465  80.5067 0011596 339.2711  20.8058 15.31094387 57552","2023-001CR","55096","6850.683","94.050","480.492","464.604","0"
"GENERATED VIA SPACETRACK.ORG API","18 SPCS","55096","SPACEBEE-161","PAYLOAD","U","23001CR","2024-01-16 14:36:13","402944","15.31136534","0.001169","97.4465","80.9663","337.6949","22.3782","0","999","5762","0.0013879","0.00041935","0","4163580","0 SPACEBEE-161","1 55096U 23001CR  24016.60848846  .00041935  00000-0  13879-2 0  9990","2 55096  97.4465  80.9663 0011690 337.6949  22.3782 15.31136534 57628","2023-001CR","55096","6850.557","94.048","480.430","464.414","0"
"GENERATED VIA SPACETRACK.ORG API","18 SPCS","55096","SPACEBEE-161","PAYLOAD","U","23001CR","2024-01-16 17:44:26","453184","15.31143403","0.0011675","97.4464","81.0973","337.1534","22.9186","0","999","5764","0.0012978","0.00039201","0","4163878","0 SPACEBEE-161","1 55096U 23001CR  24016.73919506  .00039201  00000-0  12978-2 0  9998","2 55096  97.4464  81.0973 0011675 337.1534  22.9186 15.31143403 57640","2023-001CR","55096","6850.537","94.047","480.400","464.404","0"
"GENERATED VIA SPACETRACK.ORG API","18 SPCS","55096","SPACEBEE-161","PAYLOAD","U","23001CR","2024-01-17 03:09:04","873824","15.31177775","0.0011625","97.4464","81.491","335.5256","24.5431","0","999","5770","0.0013605","0.00041153","0","4164412","0 SPACEBEE-161","1 55096U 23001CR  24017.13130641  .00041153  00000-0  13605-2 0  9995","2 55096  97.4464  81.4910 0011625 335.5256  24.5431 15.31177775 57700","2023-001CR","55096","6850.434","94.045","480.263","464.336","0"
"GENERATED VIA SPACETRACK.ORG API","18 SPCS","55096","SPACEBEE-161","PAYLOAD","U","23001CR","2024-01-17 15:41:55","6368","15.31221205","0.0011575","97.4465","82.016","333.6688","26.3964","0","999","5778","0.0013414","0.00040625","0","4164596","0 SPACEBEE-161","1 55096U 23001CR  24017.65410887  .00040625  00000-0  13414-2 0  9996","2 55096  97.4465  82.0160 0011575 333.6688  26.3964 15.31221205 57784","2023-001CR","55096","6850.305","94.043","480.099","464.240","0"
"GENERATED VIA SPACETRACK.ORG API","18 SPCS","55096","SPACEBEE-161","PAYLOAD","U","23001CR","2024-01-17 15:41:55","6368","15.31221205","0.0011575","97.4465","82.016","333.6688","26.3964","0","999","5778","0.0013414","0.00040625","0","4164693","0 SPACEBEE-161","1 55096U 23001CR  24017.65410887  .00040625  00000-0  13414-2 0  9996","2 55096  97.4465  82.0160 0011575 333.6688  26.3964 15.31221205 57784","2023-001CR","55096","6850.305","94.043","480.099","464.240","0"
"GENERATED VIA SPACETRACK.ORG API","18 SPCS","55096","SPACEBEE-161","PAYLOAD","U","23001CR","2024-01-18 02:40:37","840512","15.31257853","0.0011393","97.4468","82.4757","331.9641","28.0985","0","999","5785","0.0013382","0.00040571","0","4165274","0 SPACEBEE-161","1 55096U 23001CR  24018.11154908  .00040571  00000-0  13382-2 0  9991","2 55096  97.4468  82.4757 0011393 331.9641  28.0985 15.31257853 57859","2023-001CR","55096","6850.195","94.040","479.865","464.256","0"
"GENERATED VIA SPACETRACK.ORG API","18 SPCS","55096","SPACEBEE-161","PAYLOAD","U","23001CR","2024-01-18 16:47:31","575264","15.31303844","0.001138","97.4471","83.0665","329.9193","30.1394","0","999","5794","0.0012917","0.00039208","0","4165473","0 SPACEBEE-161","1 55096U 23001CR  24018.69967101  .00039208  00000-0  12917-2 0  9999","2 55096  97.4471  83.0665 0011380 329.9193  30.1394 15.31303844 57943","2023-001CR","55096","6850.058","94.038","479.719","464.128","0"
